[{"OBJECT_NAME":"ONEWEB-0594","OBJECT_ID":"2022-166U","EPOCH":"2025-12-11T05:59:13.687872","MEAN_MOTION":13.21824489,"ECCENTRICITY":0.00018919,"INCLINATION":87.9219,"RA_OF_ASC_NODE":281.4833,"ARG_OF_PERICENTER":76.2246,"MEAN_ANOMALY":283.9099,"EPHEMERIS_TYPE":0,"CLASSIFICATION_TYPE":"U","NORAD_CAT_ID":54660,"ELEMENT_SET_NO":999,"REV_AT_EPOCH":14673,"BSTAR":0.00033341736,"MEAN_MOTION_DOT":1.51e-6,"MEAN_MOTION_DDOT":0},{"OBJECT_NAME":"ONEWEB-0595","OBJECT_ID":"2022-166V","EPOCH":"2025-12-11T07:15:02.739456","MEAN_MOTION":13.2182429,"ECCENTRICITY":0.00017013,"INCLINATION":87.9209,"RA_OF_ASC_NODE":281.4462,"ARG_OF_PERICENTER":72.8852,"MEAN_ANOMALY":287.2468,"EPHEMERIS_TYPE":0,"CLASSIFICATION_TYPE":"U","NORAD_CAT_ID":54661,"ELEMENT_SET_NO":999,"REV_AT_EPOCH":14671,"BSTAR":0.00022811198,"MEAN_MOTION_DOT":1.07e-6,"MEAN_MOTION_DDOT":0},{"OBJECT_NAME":"ONEWEB-0596","OBJECT_ID":"2022-166W","EPOCH":"2025-12-11T06:37:08.139360","MEAN_MOTION":13.21823777,"ECCENTRICITY":0.00017209,"INCLINATION":87.9218,"RA_OF_ASC_NODE":281.4678,"ARG_OF_PERICENTER":76.1684,"MEAN_ANOMALY":283.9641,"EPHEMERIS_TYPE":0,"CLASSIFICATION_TYPE":"U","NORAD_CAT_ID":54662,"ELEMENT_SET_NO":999,"REV_AT_EPOCH":14671,"BSTAR":-3.0279139e-5,"MEAN_MOTION_DOT":1.0e-8,"MEAN_MOTION_DDOT":0},{"OBJECT_NAME":"ONEWEB-0597","OBJECT_ID":"2022-166X","EPOCH":"2025-12-11T06:11:04.998336","MEAN_MOTION":13.21824893,"ECCENTRICITY":0.00018004,"INCLINATION":87.9218,"RA_OF_ASC_NODE":281.4763,"ARG_OF_PERICENTER":81.4211,"MEAN_ANOMALY":278.7127,"EPHEMERIS_TYPE":0,"CLASSIFICATION_TYPE":"U","NORAD_CAT_ID":54663,"ELEMENT_SET_NO":999,"REV_AT_EPOCH":14671,"BSTAR":0.00018309452,"MEAN_MOTION_DOT":8.9e-7,"MEAN_MOTION_DDOT":0},{"OBJECT_NAME":"ONEWEB-0600","OBJECT_ID":"2022-166Y","EPOCH":"2025-12-11T05:45:00.509472","MEAN_MOTION":13.21825118,"ECCENTRICITY":0.0001923,"INCLINATION":87.9219,"RA_OF_ASC_NODE":281.4706,"ARG_OF_PERICENTER":79.8347,"MEAN_ANOMALY":280.3003,"EPHEMERIS_TYPE":0,"CLASSIFICATION_TYPE":"U","NORAD_CAT_ID":54664,"ELEMENT_SET_NO":999,"REV_AT_EPOCH":14668,"BSTAR":0.00034870011,"MEAN_MOTION_DOT":1.57e-6,"MEAN_MOTION_DDOT":0},{"OBJECT_NAME":"ONEWEB-0601","OBJECT_ID":"2022-166Z","EPOCH":"2025-12-11T05:33:09.631872","MEAN_MOTION":13.21825743,"ECCENTRICITY":0.00018033,"INCLINATION":87.9219,"RA_OF_ASC_NODE":281.4903,"ARG_OF_PERICENTER":87.1752,"MEAN_ANOMALY":272.9588,"EPHEMERIS_TYPE":0,"CLASSIFICATION_TYPE":"U","NORAD_CAT_ID":54665,"ELEMENT_SET_NO":999,"REV_AT_EPOCH":14687,"BSTAR":0.00028096785,"MEAN_MOTION_DOT":1.29e-6,"MEAN_MOTION_DDOT":0},{"OBJECT_NAME":"ONEWEB-0602","OBJECT_ID":"2022-166AA","EPOCH":"2025-12-11T06:31:13.520928","MEAN_MOTION":13.21826638,"ECCENTRICITY":0.00021699,"INCLINATION":87.922,"RA_OF_ASC_NODE":281.4861,"ARG_OF_PERICENTER":79.5135,"MEAN_ANOMALY":280.6244,"EPHEMERIS_TYPE":0,"CLASSIFICATION_TYPE":"U","NORAD_CAT_ID":54666,"ELEMENT_SET_NO":999,"REV_AT_EPOCH":14672,"BSTAR":0.00027372264,"MEAN_MOTION_DOT":1.26e-6,"MEAN_MOTION_DDOT":0},{"OBJECT_NAME":"ONEWEB-0603","OBJECT_ID":"2022-166AB","EPOCH":"2025-12-11T06:39:30.368448","MEAN_MOTION":13.21826558,"ECCENTRICITY":0.0001848,"INCLINATION":87.9228,"RA_OF_ASC_NODE":281.4239,"ARG_OF_PERICENTER":80.8873,"MEAN_ANOMALY":279.2469,"EPHEMERIS_TYPE":0,"CLASSIFICATION_TYPE":"U","NORAD_CAT_ID":54667,"ELEMENT_SET_NO":999,"REV_AT_EPOCH":14665,"BSTAR":-0.00047807972,"MEAN_MOTION_DOT":-1.84e-6,"MEAN_MOTION_DDOT":0},{"OBJECT_NAME":"ONEWEB-0604","OBJECT_ID":"2022-166AC","EPOCH":"2025-12-11T06:22:54.554016","MEAN_MOTION":13.21826706,"ECCENTRICITY":0.00017868,"INCLINATION":87.922,"RA_OF_ASC_NODE":281.4461,"ARG_OF_PERICENTER":74.5174,"MEAN_ANOMALY":285.6157,"EPHEMERIS_TYPE":0,"CLASSIFICATION_TYPE":"U","NORAD_CAT_ID":54668,"ELEMENT_SET_NO":999,"REV_AT_EPOCH":14661,"BSTAR":-0.00070168188,"MEAN_MOTION_DOT":-2.77e-6,"MEAN_MOTION_DDOT":0},{"OBJECT_NAME":"ONEWEB-0605","OBJECT_ID":"2022-166AD","EPOCH":"2025-12-11T06:13:27.043392","MEAN_MOTION":13.21825033,"ECCENTRICITY":0.00015174,"INCLINATION":87.9213,"RA_OF_ASC_NODE":281.4756,"ARG_OF_PERICENTER":97.7233,"MEAN_ANOMALY":262.4073,"EPHEMERIS_TYPE":0,"CLASSIFICATION_TYPE":"U","NORAD_CAT_ID":54669,"ELEMENT_SET_NO":999,"REV_AT_EPOCH":14668,"BSTAR":0.00017087998,"MEAN_MOTION_DOT":8.4e-7,"MEAN_MOTION_DDOT":0},{"OBJECT_NAME":"ONEWEB-0606","OBJECT_ID":"2022-166AE","EPOCH":"2025-12-11T06:44:15.464256","MEAN_MOTION":13.21825666,"ECCENTRICITY":0.00017377,"INCLINATION":87.922,"RA_OF_ASC_NODE":281.4822,"ARG_OF_PERICENTER":70.4154,"MEAN_ANOMALY":289.7167,"EPHEMERIS_TYPE":0,"CLASSIFICATION_TYPE":"U","NORAD_CAT_ID":54670,"ELEMENT_SET_NO":999,"REV_AT_EPOCH":14674,"BSTAR":0.00022899768,"MEAN_MOTION_DOT":1.08e-6,"MEAN_MOTION_DDOT":0},{"OBJECT_NAME":"ONEWEB-0607","OBJECT_ID":"2022-166AF","EPOCH":"2025-12-11T05:56:51.687744","MEAN_MOTION":13.21825845,"ECCENTRICITY":0.00019032,"INCLINATION":87.922,"RA_OF_ASC_NODE":281.4526,"ARG_OF_PERICENTER":81.8792,"MEAN_ANOMALY":278.2558,"EPHEMERIS_TYPE":0,"CLASSIFICATION_TYPE":"U","NORAD_CAT_ID":54671,"ELEMENT_SET_NO":999,"REV_AT_EPOCH":14671,"BSTAR":0.00047213834,"MEAN_MOTION_DOT":2.08e-6,"MEAN_MOTION_DDOT":0},{"OBJECT_NAME":"ONEWEB-0608","OBJECT_ID":"2022-166AG","EPOCH":"2025-12-11T06:06:19.728000","MEAN_MOTION":13.21824126,"ECCENTRICITY":0.00017837,"INCLINATION":87.9226,"RA_OF_ASC_NODE":281.439,"ARG_OF_PERICENTER":95.2733,"MEAN_ANOMALY":264.8605,"EPHEMERIS_TYPE":0,"CLASSIFICATION_TYPE":"U","NORAD_CAT_ID":54672,"ELEMENT_SET_NO":999,"REV_AT_EPOCH":14672,"BSTAR":0.00034782875,"MEAN_MOTION_DOT":1.57e-6,"MEAN_MOTION_DDOT":0},{"OBJECT_NAME":"ONEWEB-0610","OBJECT_ID":"2022-166AH","EPOCH":"2025-12-11T05:37:53.522400","MEAN_MOTION":13.21824444,"ECCENTRICITY":0.00018699,"INCLINATION":87.9216,"RA_OF_ASC_NODE":281.4757,"ARG_OF_PERICENTER":96.9438,"MEAN_ANOMALY":263.1908,"EPHEMERIS_TYPE":0,"CLASSIFICATION_TYPE":"U","NORAD_CAT_ID":54673,"ELEMENT_SET_NO":999,"REV_AT_EPOCH":14662,"BSTAR":0.00034976823,"MEAN_MOTION_DOT":1.57e-6,"MEAN_MOTION_DDOT":0},{"OBJECT_NAME":"ONEWEB-0611","OBJECT_ID":"2022-166AJ","EPOCH":"2025-12-11T07:17:25.787616","MEAN_MOTION":13.2182693,"ECCENTRICITY":0.00018349,"INCLINATION":87.9216,"RA_OF_ASC_NODE":281.4582,"ARG_OF_PERICENTER":71.2637,"MEAN_ANOMALY":288.8696,"EPHEMERIS_TYPE":0,"CLASSIFICATION_TYPE":"U","NORAD_CAT_ID":54674,"ELEMENT_SET_NO":999,"REV_AT_EPOCH":14662,"BSTAR":0.00017471046,"MEAN_MOTION_DOT":8.5e-7,"MEAN_MOTION_DDOT":0},{"OBJECT_NAME":"ONEWEB-0612","OBJECT_ID":"2022-166AK","EPOCH":"2025-12-11T05:47:22.563168","MEAN_MOTION":13.21824983,"ECCENTRICITY":0.00018356,"INCLINATION":87.9218,"RA_OF_ASC_NODE":281.4496,"ARG_OF_PERICENTER":83.6792,"MEAN_ANOMALY":276.4551,"EPHEMERIS_TYPE":0,"CLASSIFICATION_TYPE":"U","NORAD_CAT_ID":54675,"ELEMENT_SET_NO":999,"REV_AT_EPOCH":14660,"BSTAR":0.00036959316,"MEAN_MOTION_DOT":1.66e-6,"MEAN_MOTION_DDOT":0}]
