ONEWEB-0594             
1 54660U 22166U   25345.24946398  .00000151  00000+0  33342-3 0  9996
2 54660  87.9219 281.4833 0001891  76.2246 283.9099 13.21824489146737
ONEWEB-0595             
1 54661U 22166V   25345.30211504  .00000107  00000+0  22811-3 0  9998
2 54661  87.9209 281.4462 0001701  72.8852 287.2468 13.21824290146715
ONEWEB-0596             
1 54662U 22166W   25345.27578865  .00000001  00000+0 -30279-4 0  9993
2 54662  87.9218 281.4678 0001720  76.1684 283.9641 13.21823777146711
ONEWEB-0597             
1 54663U 22166X   25345.25769674  .00000089  00000+0  18309-3 0  9996
2 54663  87.9218 281.4763 0001800  81.4211 278.7127 13.21824893146712
ONEWEB-0600             
1 54664U 22166Y   25345.23958923  .00000157  00000+0  34870-3 0  9999
2 54664  87.9219 281.4706 0001923  79.8347 280.3003 13.21825118146687
ONEWEB-0601             
1 54665U 22166Z   25345.23136148  .00000129  00000+0  28097-3 0  9990
2 54665  87.9219 281.4903 0001803  87.1752 272.9588 13.21825743146876
ONEWEB-0602             
1 54666U 22166AA  25345.27168427  .00000126  00000+0  27372-3 0  9992
2 54666  87.9220 281.4861 0002169  79.5135 280.6244 13.21826638146721
ONEWEB-0603             
1 54667U 22166AB  25345.27743482 -.00000184  00000+0 -47808-3 0  9995
2 54667  87.9228 281.4239 0001848  80.8873 279.2469 13.21826558146652
ONEWEB-0604             
1 54668U 22166AC  25345.26590919 -.00000277  00000+0 -70168-3 0  9998
2 54668  87.9220 281.4461 0001786  74.5174 285.6157 13.21826706146613
ONEWEB-0605             
1 54669U 22166AD  25345.25934078  .00000084  00000+0  17088-3 0  9992
2 54669  87.9213 281.4756 0001517  97.7233 262.4073 13.21825033146687
ONEWEB-0606             
1 54670U 22166AE  25345.28073454  .00000108  00000+0  22900-3 0  9995
2 54670  87.9220 281.4822 0001737  70.4154 289.7167 13.21825666146740
ONEWEB-0607             
1 54671U 22166AF  25345.24782046  .00000208  00000+0  47214-3 0  9992
2 54671  87.9220 281.4526 0001903  81.8792 278.2558 13.21825845146714
ONEWEB-0608             
1 54672U 22166AG  25345.25439500  .00000157  00000+0  34783-3 0  9998
2 54672  87.9226 281.4390 0001783  95.2733 264.8605 13.21824126146726
ONEWEB-0610             
1 54673U 22166AH  25345.23464725  .00000157  00000+0  34977-3 0  9999
2 54673  87.9216 281.4757 0001869  96.9438 263.1908 13.21824444146628
ONEWEB-0611             
1 54674U 22166AJ  25345.30377069  .00000085  00000+0  17471-3 0  9992
2 54674  87.9216 281.4582 0001834  71.2637 288.8696 13.21826930146624
ONEWEB-0612             
1 54675U 22166AK  25345.24123337  .00000166  00000+0  36959-3 0  9995
2 54675  87.9218 281.4496 0001835  83.6792 276.4551 13.21824983146608
